{"type": "FeatureCollection", "features": [ {"type": "Feature", "properties": {"norad_id": 66849, "name": "STARLINK-36102", "group": "last-30-days", "lat": -4.643183774023988, "lon": -125.77626543135143, "alt_km": 398.95858527409837, "timestamp": "2025-12-24T18:55:54.777013+00:00", "meta": {"OBJECT_NAME": "STARLINK-36102", "OBJECT_ID": "2025-281B", "EPOCH": "2025-12-24T06:00:02.000160", "MEAN_MOTION": 15.58608838, "ECCENTRICITY": 0.00013674, "INCLINATION": 42.9999, "RA_OF_ASC_NODE": 52.4083, "ARG_OF_PERICENTER": 275.935, "MEAN_ANOMALY": 126.2825, "EPHEMERIS_TYPE": 0, "CLASSIFICATION_TYPE": "U", "NORAD_CAT_ID": 66849, "ELEMENT_SET_NO": 999, "REV_AT_EPOCH": 323, "BSTAR": -0.029322426, "MEAN_MOTION_DOT": -0.02061839, "MEAN_MOTION_DDOT": 0}, "tle": {"line1": "1 66849U 25281B   25358.25002315 -.02061839  00000+0 -29322-1 0  9991", "line2": "2 66849  42.9999  52.4083 0001367 275.9350 126.2825 15.58608838  3233"}}, "geometry": {"type": "Point", "coordinates": [-125.77626543135143, -4.643183774023988]}}, {"type": "Feature", "properties": {"norad_id": 66850, "name": "STARLINK-36105", "group": "last-30-days", "lat": -5.947729044438066, "lon": -124.36154251463219, "alt_km": 399.061491167874, "timestamp": "2025-12-24T18:55:54.777023+00:00", "meta": {"OBJECT_NAME": "STARLINK-36105", "OBJECT_ID": "2025-281C", "EPOCH": "2025-12-24T06:00:02.000160", "MEAN_MOTION": 15.58598118, "ECCENTRICITY": 0.00016223, "INCLINATION": 43.0004, "RA_OF_ASC_NODE": 52.404, "ARG_OF_PERICENTER": 277.1386, "MEAN_ANOMALY": 126.9983, "EPHEMERIS_TYPE": 0, "CLASSIFICATION_TYPE": "U", "NORAD_CAT_ID": 66850, "ELEMENT_SET_NO": 999, "REV_AT_EPOCH": 323, "BSTAR": -0.028975044, "MEAN_MOTION_DOT": -0.0200167, "MEAN_MOTION_DDOT": 0}, "tle": {"line1": "1 66850U 25281C   25358.25002315 -.02001670  00000+0 -28975-1 0  9993", "line2": "2 66850  43.0004  52.4040 0001622 277.1386 126.9983 15.58598118  3235"}}, "geometry": {"type": "Point", "coordinates": [-124.36154251463219, -5.947729044438066]}}, {"type": "Feature", "properties": {"norad_id": 66851, "name": "STARLINK-36094", "group": "last-30-days", "lat": -7.243221421717307, "lon": -122.94768300298968, "alt_km": 399.1961328167299, "timestamp": "2025-12-24T18:55:54.777035+00:00", "meta": {"OBJECT_NAME": "STARLINK-36094", "OBJECT_ID": "2025-281D", "EPOCH": "2025-12-24T06:00:02.000160", "MEAN_MOTION": 15.58604932, "ECCENTRICITY": 0.0001111, "INCLINATION": 42.9997, "RA_OF_ASC_NODE": 52.3978, "ARG_OF_PERICENTER": 277.0756, "MEAN_ANOMALY": 128.976, "EPHEMERIS_TYPE": 0, "CLASSIFICATION_TYPE": "U", "NORAD_CAT_ID": 66851, "ELEMENT_SET_NO": 999, "REV_AT_EPOCH": 323, "BSTAR": -0.029207635, "MEAN_MOTION_DOT": -0.02015798, "MEAN_MOTION_DDOT": 0}, "tle": {"line1": "1 66851U 25281D   25358.25002315 -.02015798  00000+0 -29208-1 0  9990", "line2": "2 66851  42.9997  52.3978 0001111 277.0756 128.9760 15.58604932  3234"}}, "geometry": {"type": "Point", "coordinates": [-122.94768300298968, -7.243221421717307]}}, {"type": "Feature", "properties": {"norad_id": 66852, "name": "STARLINK-35992", "group": "last-30-days", "lat": -8.535485634730875, "lon": -121.52218999177983, "alt_km": 399.31227877068704, "timestamp": "2025-12-24T18:55:54.777047+00:00", "meta": {"OBJECT_NAME": "STARLINK-35992", "OBJECT_ID": "2025-281E", "EPOCH": "2025-12-24T06:00:02.000160", "MEAN_MOTION": 15.58605778, "ECCENTRICITY": 0.00012493, "INCLINATION": 42.9998, "RA_OF_ASC_NODE": 52.3939, "ARG_OF_PERICENTER": 277.4977, "MEAN_ANOMALY": 130.471, "EPHEMERIS_TYPE": 0, "CLASSIFICATION_TYPE": "U", "NORAD_CAT_ID": 66852, "ELEMENT_SET_NO": 999, "REV_AT_EPOCH": 323, "BSTAR": -0.029204403, "MEAN_MOTION_DOT": -0.02015759, "MEAN_MOTION_DDOT": 0}, "tle": {"line1": "1 66852U 25281E   25358.25002315 -.02015759  00000+0 -29204-1 0  9994", "line2": "2 66852  42.9998  52.3939 0001249 277.4977 130.4710 15.58605778  3236"}}, "geometry": {"type": "Point", "coordinates": [-121.52218999177983, -8.535485634730875]}}, {"type": "Feature", "properties": {"norad_id": 66853, "name": "STARLINK-35986", "group": "last-30-days", "lat": -9.825597200821829, "lon": -120.08371778127463, "alt_km": 399.4108166602791, "timestamp": "2025-12-24T18:55:54.777058+00:00", "meta": {"OBJECT_NAME": "STARLINK-35986", "OBJECT_ID": "2025-281F", "EPOCH": "2025-12-24T06:00:02.000160", "MEAN_MOTION": 15.58596728, "ECCENTRICITY": 0.00012473, "INCLINATION": 43.0002, "RA_OF_ASC_NODE": 52.3899, "ARG_OF_PERICENTER": 278.7841, "MEAN_ANOMALY": 131.1022, "EPHEMERIS_TYPE": 0, "CLASSIFICATION_TYPE": "U", "NORAD_CAT_ID": 66853, "ELEMENT_SET_NO": 999, "REV_AT_EPOCH": 323, "BSTAR": -0.028931164, "MEAN_MOTION_DOT": -0.01998651, "MEAN_MOTION_DDOT": 0}, "tle": {"line1": "1 66853U 25281F   25358.25002315 -.01998651  00000+0 -28931-1 0  9991", "line2": "2 66853  43.0002  52.3899 0001247 278.7841 131.1022 15.58596728  3230"}}, "geometry": {"type": "Point", "coordinates": [-120.08371778127463, -9.825597200821829]}}, {"type": "Feature", "properties": {"norad_id": 66854, "name": "STARLINK-36087", "group": "last-30-days", "lat": -11.09964978429125, "lon": -118.64740841856505, "alt_km": 399.6764883675296, "timestamp": "2025-12-24T18:55:54.777067+00:00", "meta": {"OBJECT_NAME": "STARLINK-36087", "OBJECT_ID": "2025-281G", "EPOCH": "2025-12-24T06:00:02.000160", "MEAN_MOTION": 15.58612401, "ECCENTRICITY": 0.00011812, "INCLINATION": 42.9999, "RA_OF_ASC_NODE": 52.3835, "ARG_OF_PERICENTER": 283.1945, "MEAN_ANOMALY": 128.6048, "EPHEMERIS_TYPE": 0, "CLASSIFICATION_TYPE": "U", "NORAD_CAT_ID": 66854, "ELEMENT_SET_NO": 999, "REV_AT_EPOCH": 324, "BSTAR": -0.029388526, "MEAN_MOTION_DOT": -0.02066117, "MEAN_MOTION_DDOT": 0}, "tle": {"line1": "1 66854U 25281G   25358.25002315 -.02066117  00000+0 -29389-1 0  9994", "line2": "2 66854  42.9999  52.3835 0001181 283.1945 128.6048 15.58612401  3243"}}, "geometry": {"type": "Point", "coordinates": [-118.64740841856505, -11.09964978429125]}}, {"type": "Feature", "properties": {"norad_id": 66855, "name": "STARLINK-36090", "group": "last-30-days", "lat": -12.373422838129796, "lon": -117.18848986325307, "alt_km": 399.65025515557954, "timestamp": "2025-12-24T18:55:54.777079+00:00", "meta": {"OBJECT_NAME": "STARLINK-36090", "OBJECT_ID": "2025-281H", "EPOCH": "2025-12-24T06:00:02.000160", "MEAN_MOTION": 15.58611403, "ECCENTRICITY": 0.00012884, "INCLINATION": 42.9998, "RA_OF_ASC_NODE": 52.3795, "ARG_OF_PERICENTER": 278.7383, "MEAN_ANOMALY": 134.9764, "EPHEMERIS_TYPE": 0, "CLASSIFICATION_TYPE": "U", "NORAD_CAT_ID": 66855, "ELEMENT_SET_NO": 999, "REV_AT_EPOCH": 311, "BSTAR": -0.029323005, "MEAN_MOTION_DOT": -0.02062004, "MEAN_MOTION_DDOT": 0}, "tle": {"line1": "1 66855U 25281H   25358.25002315 -.02062004  00000+0 -29323-1 0  9994", "line2": "2 66855  42.9998  52.3795 0001288 278.7383 134.9764 15.58611403  3114"}}, "geometry": {"type": "Point", "coordinates": [-117.18848986325307, -12.373422838129796]}}, {"type": "Feature", "properties": {"norad_id": 66856, "name": "STARLINK-36072", "group": "last-30-days", "lat": -13.639478998009805, "lon": -115.71698674840685, "alt_km": 399.8149111669791, "timestamp": "2025-12-24T18:55:54.777089+00:00", "meta": {"OBJECT_NAME": "STARLINK-36072", "OBJECT_ID": "2025-281J", "EPOCH": "2025-12-24T06:00:02.000160", "MEAN_MOTION": 15.58611871, "ECCENTRICITY": 0.00011318, "INCLINATION": 42.9998, "RA_OF_ASC_NODE": 52.3736, "ARG_OF_PERICENTER": 280.8451, "MEAN_ANOMALY": 134.7894, "EPHEMERIS_TYPE": 0, "CLASSIFICATION_TYPE": "U", "NORAD_CAT_ID": 66856, "ELEMENT_SET_NO": 999, "REV_AT_EPOCH": 324, "BSTAR": -0.029384021, "MEAN_MOTION_DOT": -0.02065766, "MEAN_MOTION_DDOT": 0}, "tle": {"line1": "1 66856U 25281J   25358.25002315 -.02065766  00000+0 -29384-1 0  9990", "line2": "2 66856  42.9998  52.3736 0001131 280.8451 134.7894 15.58611871  3242"}}, "geometry": {"type": "Point", "coordinates": [-115.71698674840685, -13.639478998009805]}}, {"type": "Feature", "properties": {"norad_id": 66857, "name": "STARLINK-36083", "group": "last-30-days", "lat": -14.893746871123657, "lon": -114.23142508168748, "alt_km": 399.93412613582313, "timestamp": "2025-12-24T18:55:54.777101+00:00", "meta": {"OBJECT_NAME": "STARLINK-36083", "OBJECT_ID": "2025-281K", "EPOCH": "2025-12-24T06:00:02.000160", "MEAN_MOTION": 15.58611272, "ECCENTRICITY": 0.00012668, "INCLINATION": 42.9999, "RA_OF_ASC_NODE": 52.3695, "ARG_OF_PERICENTER": 282.4556, "MEAN_ANOMALY": 135.0956, "EPHEMERIS_TYPE": 0, "CLASSIFICATION_TYPE": "U", "NORAD_CAT_ID": 66857, "ELEMENT_SET_NO": 999, "REV_AT_EPOCH": 324, "BSTAR": -0.029392132, "MEAN_MOTION_DOT": -0.02066319, "MEAN_MOTION_DDOT": 0}, "tle": {"line1": "1 66857U 25281K   25358.25002315 -.02066319  00000+0 -29392-1 0  9995", "line2": "2 66857  42.9999  52.3695 0001266 282.4556 135.0956 15.58611272  3249"}}, "geometry": {"type": "Point", "coordinates": [-114.23142508168748, -14.893746871123657]}}, {"type": "Feature", "properties": {"norad_id": 66858, "name": "STARLINK-35118", "group": "last-30-days", "lat": -16.144890945096414, "lon": -112.72193678144423, "alt_km": 399.9177685129762, "timestamp": "2025-12-24T18:55:54.777111+00:00", "meta": {"OBJECT_NAME": "STARLINK-35118", "OBJECT_ID": "2025-281L", "EPOCH": "2025-12-24T06:00:02.000160", "MEAN_MOTION": 15.58612241, "ECCENTRICITY": 0.00012219, "INCLINATION": 43, "RA_OF_ASC_NODE": 52.3639, "ARG_OF_PERICENTER": 279.2156, "MEAN_ANOMALY": 140.2487, "EPHEMERIS_TYPE": 0, "CLASSIFICATION_TYPE": "U", "NORAD_CAT_ID": 66858, "ELEMENT_SET_NO": 999, "REV_AT_EPOCH": 302, "BSTAR": -0.029290077, "MEAN_MOTION_DOT": -0.02059952, "MEAN_MOTION_DDOT": 0}, "tle": {"line1": "1 66858U 25281L   25358.25002315 -.02059952  00000+0 -29290-1 0  9998", "line2": "2 66858  43.0000  52.3639 0001221 279.2156 140.2487 15.58612241  3024"}}, "geometry": {"type": "Point", "coordinates": [-112.72193678144423, -16.144890945096414]}}]}